{
  "type": "FeatureCollection",
  "features": [
    {
      "type": "Feature",
      "properties": {
        "norad_id": 62876,
        "name": "QZS-6 (QZSS/PRN 200)",
        "group": "gnss",
        "lat": 0.02154190475105346,
        "lon": 65.26853931035626,
        "alt_km": 35791.778617519325,
        "timestamp": "2025-12-13T16:48:32.955061+00:00",
        "meta_object_name": "QZS-6 (QZSS/PRN 200)",
        "meta_object_id": "2025-023A",
        "meta_epoch": "2025-12-12T22:28:17.095872",
        "meta_mean_motion": 1.00274528,
        "meta_eccentricity": 0.00016737,
        "meta_inclination": 0.0319,
        "meta_ra_of_asc_node": 55.9014,
        "meta_arg_of_pericenter": 214.7108,
        "meta_mean_anomaly": 238.8296,
        "meta_ephemeris_type": 0,
        "meta_classification_type": "U",
        "meta_norad_cat_id": 62876,
        "meta_element_set_no": 999,
        "meta_rev_at_epoch": 309,
        "meta_bstar": 0,
        "meta_mean_motion_dot": -2.21e-06,
        "meta_mean_motion_ddot": 0,
        "tle_line1": "1 62876U 25023A   25346.93630898 -.00000221  00000+0  00000+0 0  9991",
        "tle_line2": "2 62876   0.0319  55.9014 0001673 214.7108 238.8296  1.00274528  3097"
      },
      "geometry": {
        "type": "Point",
        "coordinates": [
          65.26853931035626,
          0.02154190475105346
        ]
      }
    },
    {
      "type": "Feature",
      "properties": {
        "norad_id": 63130,
        "name": "COSMOS 2584 (704K)",
        "group": "gnss",
        "lat": -54.35703372601351,
        "lon": 38.541554590746834,
        "alt_km": 19132.21523723556,
        "timestamp": "2025-12-13T16:48:32.955075+00:00",
        "meta_object_name": "COSMOS 2584 (704K)",
        "meta_object_id": "2025-042A",
        "meta_epoch": "2025-12-11T21:45:20.522592",
        "meta_mean_motion": 2.13103011,
        "meta_eccentricity": 0.00076483,
        "meta_inclination": 64.9756,
        "meta_ra_of_asc_node": 79.1743,
        "meta_arg_of_pericenter": 217.1196,
        "meta_mean_anomaly": 142.8438,
        "meta_ephemeris_type": 0,
        "meta_classification_type": "U",
        "meta_norad_cat_id": 63130,
        "meta_element_set_no": 999,
        "meta_rev_at_epoch": 605,
        "meta_bstar": 0,
        "meta_mean_motion_dot": -3.5e-07,
        "meta_mean_motion_ddot": 0,
        "tle_line1": "1 63130U 25042A   25345.90648753 -.00000035  00000+0  00000+0 0  9994",
        "tle_line2": "2 63130  64.9756  79.1743 0007648 217.1196 142.8438  2.13103011  6058"
      },
      "geometry": {
        "type": "Point",
        "coordinates": [
          38.541554590746834,
          -54.35703372601351
        ]
      }
    },
    {
      "type": "Feature",
      "properties": {
        "norad_id": 64202,
        "name": "GPS BIII-8  (PRN 21)",
        "group": "gnss",
        "lat": 47.351588576148316,
        "lon": 87.8181928938886,
        "alt_km": 20183.47411677781,
        "timestamp": "2025-12-13T16:48:32.955086+00:00",
        "meta_object_name": "GPS BIII-8  (PRN 21)",
        "meta_object_id": "2025-116A",
        "meta_epoch": "2025-12-12T15:31:54.991200",
        "meta_mean_motion": 2.00558315,
        "meta_eccentricity": 0.00055942,
        "meta_inclination": 55.1057,
        "meta_ra_of_asc_node": 38.6443,
        "meta_arg_of_pericenter": 307.9268,
        "meta_mean_anomaly": 75.3197,
        "meta_ephemeris_type": 0,
        "meta_classification_type": "U",
        "meta_norad_cat_id": 64202,
        "meta_element_set_no": 999,
        "meta_rev_at_epoch": 413,
        "meta_bstar": 0,
        "meta_mean_motion_dot": -9.8e-07,
        "meta_mean_motion_ddot": 0,
        "tle_line1": "1 64202U 25116A   25346.64716425 -.00000098  00000+0  00000+0 0  9990",
        "tle_line2": "2 64202  55.1057  38.6443 0005594 307.9268  75.3197  2.00558315  4134"
      },
      "geometry": {
        "type": "Point",
        "coordinates": [
          87.8181928938886,
          47.351588576148316
        ]
      }
    },
    {
      "type": "Feature",
      "properties": {
        "norad_id": 65590,
        "name": "COSMOS 2596 (708K)",
        "group": "gnss",
        "lat": 47.66239766903619,
        "lon": -7.369564165804859,
        "alt_km": 19136.191490020676,
        "timestamp": "2025-12-13T16:48:32.955097+00:00",
        "meta_object_name": "COSMOS 2596 (708K)",
        "meta_object_id": "2025-206B",
        "meta_epoch": "2025-12-10T13:06:28.122048",
        "meta_mean_motion": 2.13100337,
        "meta_eccentricity": 0.00140136,
        "meta_inclination": 64.7453,
        "meta_ra_of_asc_node": 321.5499,
        "meta_arg_of_pericenter": 305.8933,
        "meta_mean_anomaly": 208.9804,
        "meta_ephemeris_type": 0,
        "meta_classification_type": "U",
        "meta_norad_cat_id": 65590,
        "meta_element_set_no": 999,
        "meta_rev_at_epoch": 189,
        "meta_bstar": 0,
        "meta_mean_motion_dot": -5.2e-07,
        "meta_mean_motion_ddot": 0,
        "tle_line1": "1 65590U 25206B   25344.54615882 -.00000052  00000+0  00000+0 0  9993",
        "tle_line2": "2 65590  64.7453 321.5499 0014013 305.8933 208.9804  2.13100337  1898"
      },
      "geometry": {
        "type": "Point",
        "coordinates": [
          -7.369564165804859,
          47.66239766903619
        ]
      }
    }
  ]
}